{
    "links": {
        "self": "http://www.neowsapp.com/rest/v1/neo/3838131?api_key=iIulBulltgU6a56xZRHN4H3l9WmuAYTsLGpBGhQ2"
    },
    "id": "3838131",
    "neo_reference_id": "3838131",
    "name": "(2019 CV1)",
    "designation": "2019 CV1",
    "nasa_jpl_url": "http://ssd.jpl.nasa.gov/sbdb.cgi?sstr=3838131",
    "absolute_magnitude_h": 25.4,
    "estimated_diameter": {
        "kilometers": {
            "estimated_diameter_min": 0.022108281,
            "estimated_diameter_max": 0.0494356193
        },
        "meters": {
            "estimated_diameter_min": 22.1082810359,
            "estimated_diameter_max": 49.435619262
        },
        "miles": {
            "estimated_diameter_min": 0.0137374447,
            "estimated_diameter_max": 0.0307178602
        },
        "feet": {
            "estimated_diameter_min": 72.5337327539,
            "estimated_diameter_max": 162.1903570994
        }
    },
    "is_potentially_hazardous_asteroid": false,
    "close_approach_data": [
        {
            "close_approach_date": "1965-09-21",
            "close_approach_date_full": "1965-Sep-21 07:55",
            "epoch_date_close_approach": -135014700000,
            "relative_velocity": {
                "kilometers_per_second": "20.5178012159",
                "kilometers_per_hour": "73864.0843772782",
                "miles_per_hour": "45896.2695398704"
            },
            "miss_distance": {
                "astronomical": "0.4070428929",
                "lunar": "158.3396853381",
                "kilometers": "60892749.776478123",
                "miles": "37837000.1860911774"
            },
            "orbiting_body": "Earth"
        },
        {
            "close_approach_date": "2019-01-22",
            "close_approach_date_full": "2019-Jan-22 11:43",
            "epoch_date_close_approach": 1548157380000,
            "relative_velocity": {
                "kilometers_per_second": "8.9427798715",
                "kilometers_per_hour": "32194.0075375673",
                "miles_per_hour": "20004.1042946623"
            },
            "miss_distance": {
                "astronomical": "0.0213376727",
                "lunar": "8.3003546803",
                "kilometers": "3192070.386677149",
                "miles": "1983460.5639926962"
            },
            "orbiting_body": "Earth"
        },
        {
            "close_approach_date": "2020-08-02",
            "close_approach_date_full": "2020-Aug-02 04:56",
            "epoch_date_close_approach": 1596344160000,
            "relative_velocity": {
                "kilometers_per_second": "10.6963239152",
                "kilometers_per_hour": "38506.7660947898",
                "miles_per_hour": "23926.6069659543"
            },
            "miss_distance": {
                "astronomical": "0.0738930513",
                "lunar": "28.7443969557",
                "kilometers": "11054243.082280731",
                "miles": "6868788.1413908478"
            },
            "orbiting_body": "Mars"
        },
        {
            "close_approach_date": "2020-09-30",
            "close_approach_date_full": "2020-Sep-30 08:38",
            "epoch_date_close_approach": 1601455080000,
            "relative_velocity": {
                "kilometers_per_second": "16.1124203447",
                "kilometers_per_hour": "58004.7132409711",
                "miles_per_hour": "36041.8730690912"
            },
            "miss_distance": {
                "astronomical": "0.2594674031",
                "lunar": "100.9328198059",
                "kilometers": "38815770.838191397",
                "miles": "24119001.5858873986"
            },
            "orbiting_body": "Earth"
        }
    ],
    "orbital_data": {
        "orbit_id": "3",
        "orbit_determination_date": "2019-02-14 07:18:24",
        "first_observation_date": "2019-02-05",
        "last_observation_date": "2019-02-12",
        "data_arc_in_days": 7,
        "observations_used": 43,
        "orbit_uncertainty": "8",
        "minimum_orbit_intersection": ".00548433",
        "jupiter_tisserand_invariant": "4.378",
        "epoch_osculation": "2458520.5",
        "eccentricity": ".4098487866595537",
        "semi_major_axis": "1.536283107168927",
        "inclination": "1.742606249369553",
        "ascending_node_longitude": "288.0152273318884",
        "orbital_period": "695.5130923085904",
        "perihelion_distance": ".9066393397301731",
        "perihelion_argument": "147.6164419243635",
        "aphelion_distance": "2.165926874607681",
        "perihelion_time": "2458470.553929345996",
        "mean_anomaly": "25.85226020082406",
        "mean_motion": ".5176034843644216",
        "equinox": "J2000",
        "orbit_class": {
            "orbit_class_type": "APO",
            "orbit_class_description": "Near-Earth asteroid orbits which cross the Earth’s orbit similar to that of 1862 Apollo",
            "orbit_class_range": "a (semi-major axis) > 1.0 AU; q (perihelion) < 1.017 AU"
        }
    },
    "is_sentry_object": false
}